[{"OBJECT_NAME":"NESS","OBJECT_ID":"2023-155E","EPOCH":"2026-03-09T18:20:54.923712","MEAN_MOTION":15.26794015,"ECCENTRICITY":0.00068914,"INCLINATION":97.5941,"RA_OF_ASC_NODE":152.6141,"ARG_OF_PERICENTER":179.8776,"MEAN_ANOMALY":180.2465,"EPHEMERIS_TYPE":0,"CLASSIFICATION_TYPE":"U","NORAD_CAT_ID":58020,"ELEMENT_SET_NO":999,"REV_AT_EPOCH":13330,"BSTAR":0.00074047066,"MEAN_MOTION_DOT":0.00019469,"MEAN_MOTION_DDOT":0},{"OBJECT_NAME":"STARLINK-35719","OBJECT_ID":"2025-303W","EPOCH":"2026-03-09T09:32:44.047392","MEAN_MOTION":15.27598093,"ECCENTRICITY":0.00016361,"INCLINATION":43.0006,"RA_OF_ASC_NODE":312.0919,"ARG_OF_PERICENTER":257.2789,"MEAN_ANOMALY":102.788,"EPHEMERIS_TYPE":0,"CLASSIFICATION_TYPE":"U","NORAD_CAT_ID":67183,"ELEMENT_SET_NO":999,"REV_AT_EPOCH":1269,"BSTAR":0.00093998371,"MEAN_MOTION_DOT":0.00025709,"MEAN_MOTION_DDOT":0}]
